[
    {"id":1,"department_code":"01","insee_code":"01001","zip_code":"01400","name":"L'Abergement-Cl\u00e9menciat","slug":"l abergement clemenciat","gps_lat":46.15678199203189,"gps_lng":4.92469920318725},
    {"id":2,"department_code":"01","insee_code":"01002","zip_code":"01640","name":"L'Abergement-de-Varey","slug":"l abergement de varey","gps_lat":46.01008562499999,"gps_lng":5.42875916666667},
    {"id":3,"department_code":"01","insee_code":"01004","zip_code":"01500","name":"Amb\u00e9rieu-en-Bugey","slug":"amberieu en bugey","gps_lat":45.95840939226519,"gps_lng":5.3759920441989},
    {"id":4,"department_code":"01","insee_code":"01005","zip_code":"01330","name":"Amb\u00e9rieux-en-Dombes","slug":"amberieux en dombes","gps_lat":46.00012039215686,"gps_lng":4.9106016993464},
    {"id":5,"department_code":"01","insee_code":"01006","zip_code":"01300","name":"Ambl\u00e9on","slug":"ambleon","gps_lat":45.74642690476188,"gps_lng":5.60249178571429},
    {"id":6,"department_code":"01","insee_code":"01007","zip_code":"01500","name":"Ambronay","slug":"ambronay","gps_lat":46.00144716049382,"gps_lng":5.36654228395062},
    {"id":7,"department_code":"01","insee_code":"01008","zip_code":"01500","name":"Ambutrix","slug":"ambutrix","gps_lat":45.93598324324325,"gps_lng":5.33183040540541},
    {"id":8,"department_code":"01","insee_code":"01009","zip_code":"01300","name":"Andert-et-Condon","slug":"andert et condon","gps_lat":45.78647100671141,"gps_lng":5.65744181208053},{"id":9,"department_code":"01","insee_code":"01010","zip_code":"01350","name":"Anglefort","slug":"anglefort","gps_lat":45.91937534246575,"gps_lng":5.78904205479452},
    {"id":10,"department_code":"01","insee_code":"01011","zip_code":"01100","name":"Apremont","slug":"apremont","gps_lat":46.20755872093024,"gps_lng":5.65991651162791},
    {"id":11,"department_code":"01","insee_code":"01012","zip_code":"01110","name":"Aranc","slug":"aranc","gps_lat":46.00481852941176,"gps_lng":5.50401754901961},{"id":12,"department_code":"01","insee_code":"01013","zip_code":"01230","name":"Arandas","slug":"arandas","gps_lat":45.891865,"gps_lng":5.49309803030303},
    {"id":13,"department_code":"01","insee_code":"01014","zip_code":"01100","name":"Arbent","slug":"arbent","gps_lat":46.28619369863014,"gps_lng":5.68751712328767},
    {"id":14,"department_code":"01","insee_code":"01015","zip_code":"01300","name":"Arboys en Bugey","slug":"arboys en bugey","gps_lat":45.71719158301153,"gps_lng":5.64452416988417},{"id":15,"department_code":"01","insee_code":"01016","zip_code":"01190","name":"Arbigny","slug":"arbigny","gps_lat":46.47556610169492,"gps_lng":4.96954813559322},
    {"id":16,"department_code":"01","insee_code":"01017","zip_code":"01230","name":"Argis","slug":"argis","gps_lat":45.93517195876287,"gps_lng":5.48169402061856},
    {"id":17,"department_code":"01","insee_code":"01019","zip_code":"01510","name":"Armix","slug":"armix","gps_lat":45.85662863636362,"gps_lng":5.5744975},
    {"id":18,"department_code":"01","insee_code":"01021","zip_code":"01480","name":"Ars-sur-Formans","slug":"ars sur formans","gps_lat":45.99437624999999,"gps_lng":4.81913791666667},{"id":19,"department_code":"01","insee_code":"01022","zip_code":"01510","name":"Artemare","slug":"artemare","gps_lat":45.86946857142858,"gps_lng":5.69236197802198},
    {"id":20,"department_code":"01","insee_code":"01023","zip_code":"01570","name":"Asni\u00e8res-sur-Sa\u00f4ne","slug":"asnieres sur saone","gps_lat":46.38608654545455,"gps_lng":4.88606418181818},
    {"id":21,"department_code":"01","insee_code":"01024","zip_code":"01340","name":"Attignat","slug":"attignat","gps_lat":46.28585890350878,"gps_lng":5.18164934210526},
    {"id":22,"department_code":"01","insee_code":"01025","zip_code":"01380","name":"B\u00e2g\u00e9-Dommartin","slug":"bage dommartin","gps_lat":46.32233749999998,"gps_lng":4.957910975},{"id":23,"department_code":"01","insee_code":"01026","zip_code":"01380","name":"B\u00e2g\u00e9-le-Ch\u00e2tel","slug":"bage le chatel","gps_lat":46.30790644444445,"gps_lng":4.92956755555556},
    {"id":24,"department_code":"01","insee_code":"01027","zip_code":"01360","name":"Balan","slug":"balan","gps_lat":45.82999739726026,"gps_lng":5.10215657534246},
    {"id":25,"department_code":"01","insee_code":"01028","zip_code":"01990","name":"Baneins","slug":"baneins","gps_lat":46.11952910714286,"gps_lng":4.90657553571428},
    {"id":26,"department_code":"01","insee_code":"01029","zip_code":"01270","name":"Beaupont","slug":"beaupont","gps_lat":46.42501007874015,"gps_lng":5.26294404199475},
    {"id":27,"department_code":"01","insee_code":"01030","zip_code":"01480","name":"Beauregard","slug":"beauregard","gps_lat":46.00095347826086,"gps_lng":4.75695391304348},
    {"id":28,"department_code":"01","insee_code":"01031","zip_code":"01100","name":"Bellignat","slug":"bellignat","gps_lat":46.24142238095239,"gps_lng":5.639985},
    {"id":29,"department_code":"01","insee_code":"01032","zip_code":"01360","name":"B\u00e9ligneux","slug":"beligneux","gps_lat":45.86536266055046,"gps_lng":5.13276064220184},{"id":30,"department_code":"01","insee_code":"01033","zip_code":"01200","name":"Bellegarde-sur-Valserine","slug":"bellegarde sur valserine","gps_lat":46.10492359183673,"gps_lng":5.82482881632652},
    {"id":31,"department_code":"01","insee_code":"01034","zip_code":"01300","name":"Belley","slug":"belley","gps_lat":45.74780620192306,"gps_lng":5.68156192307692},
    {"id":32,"department_code":"01","insee_code":"01035","zip_code":"01130","name":"Belleydoux","slug":"belleydoux","gps_lat":46.25555827586209,"gps_lng":5.77904057471264},
    {"id":33,"department_code":"01","insee_code":"01036","zip_code":"01260","name":"Belmont-Luth\u00e9zieu","slug":"belmont luthezieu","gps_lat":45.89224689024389,"gps_lng":5.65704481707317},
    {"id":34,"department_code":"01","insee_code":"01037","zip_code":"01470","name":"B\u00e9nonces","slug":"benonces","gps_lat":45.83573522388058,"gps_lng":5.47867485074627},    
    {"id":26977,"department_code":"67","insee_code":"67333","zip_code":"67330","name":"Niedersoultzbach","slug":"niedersoultzbach","gps_lat":48.84993088888888,"gps_lng":7.47196044444444},
    {"id":26978,"department_code":"67","insee_code":"67334","zip_code":"67510","name":"Niedersteinbach","slug":"niedersteinbach","gps_lat":49.03911749999998,"gps_lng":7.71257857142857},
    {"id":26979,"department_code":"67","insee_code":"67335","zip_code":"67520","name":"Nordheim","slug":"nordheim","gps_lat":48.63997987500001,"gps_lng":7.5004655},
    {"id":26980,"department_code":"67","insee_code":"67336","zip_code":"67150","name":"Nordhouse","slug":"nordhouse","gps_lat":48.44804389830504,"gps_lng":7.6852086440678},{"id":26981,"department_code":"67","insee_code":"67337","zip_code":"67680","name":"Nothalten","slug":"nothalten","gps_lat":48.35578568627449,"gps_lng":7.41347509803922},{"id":26982,"department_code":"67","insee_code":"67338","zip_code":"67230","name":"Obenheim","slug":"obenheim","gps_lat":48.35455859649122,"gps_lng":7.68596719298246},
    {"id":29209,"department_code":"72","insee_code":"72267","zip_code":"72400","name":"Saint-Aubin-des-Coudrais","slug":"saint aubin des coudrais","gps_lat":48.17832238493728,"gps_lng":0.58991828451883},
    {"id":29210,"department_code":"72","insee_code":"72268","zip_code":"72220","name":"Saint-Biez-en-Belin","slug":"saint biez en belin","gps_lat":47.82019773913045,"gps_lng":0.24043234782609},{"id":29211,"department_code":"72","insee_code":"72269","zip_code":"72120","name":"Saint-Calais","slug":"saint calais","gps_lat":47.9269514468085,"gps_lng":0.74834412765957},{"id":29212,"department_code":"72","insee_code":"72270","zip_code":"72600","name":"Saint-Calez-en-Saosnois","slug":"saint calez en saosnois","gps_lat":48.30581882352941,"gps_lng":0.31794729411765},{"id":29213,"department_code":"72","insee_code":"72271","zip_code":"72110","name":"Saint-C\u00e9lerin","slug":"saint celerin","gps_lat":48.12708987012986,"gps_lng":0.43404357142857},{"id":29214,"department_code":"72","insee_code":"72272","zip_code":"72120","name":"Sainte-C\u00e9rotte","slug":"sainte cerotte","gps_lat":47.8987171764706,"gps_lng":0.67974358823529},{"id":32390,"department_code":"80","insee_code":"80734","zip_code":"80160","name":"Sentelie","slug":"sentelie","gps_lat":49.72047740259741,"gps_lng":2.0202925974026},{"id":32391,"department_code":"80","insee_code":"80735","zip_code":"80540","name":"Seux","slug":"seux","gps_lat":49.8778224074074,"gps_lng":2.10426833333333},{"id":32392,"department_code":"80","insee_code":"80736","zip_code":"80490","name":"Sorel-en-Vimeu","slug":"sorel en vimeu","gps_lat":50.01266051724136,"gps_lng":1.9152587931034502},{"id":32393,"department_code":"80","insee_code":"80737","zip_code":"80240","name":"Sorel","slug":"sorel","gps_lat":50.02714760000001,"gps_lng":3.05314253333333},{"id":32394,"department_code":"80","insee_code":"80738","zip_code":"80310","name":"Soues","slug":"soues","gps_lat":49.95351400000001,"gps_lng":2.05559122222222},{"id":32395,"department_code":"80","insee_code":"80740","zip_code":"80250","name":"Sourdon","slug":"sourdon","gps_lat":49.70589974358974,"gps_lng":2.40040794871795},{"id":32396,"department_code":"80","insee_code":"80741","zip_code":"80200","name":"Soy\u00e9court","slug":"soyecourt","gps_lat":49.86529083333333,"gps_lng":2.79820944444444},{"id":32397,"department_code":"80","insee_code":"80742","zip_code":"80620","name":"Surcamps","slug":"surcamps","gps_lat":50.06694999999999,"gps_lng":2.07835804878049},{"id":32398,"department_code":"80","insee_code":"80743","zip_code":"80340","name":"Suzanne","slug":"suzanne","gps_lat":49.95979274725275,"gps_lng":2.76175538461538},{"id":32399,"department_code":"80","insee_code":"80744","zip_code":"80270","name":"Tailly","slug":"tailly","gps_lat":49.93296156862746,"gps_lng":1.94540647058823},{"id":32400,"department_code":"80","insee_code":"80746","zip_code":"80260","name":"Talmas","slug":"talmas","gps_lat":50.03834256097561,"gps_lng":2.33265670731707},{"id":32401,"department_code":"80","insee_code":"80747","zip_code":"80240","name":"Templeux-la-Fosse","slug":"templeux la fosse","gps_lat":49.97324641509434,"gps_lng":3.02194820754717},{"id":32402,"department_code":"80","insee_code":"80748","zip_code":"80240","name":"Templeux-le-Gu\u00e9rard","slug":"templeux le guerard","gps_lat":49.96284277777781,"gps_lng":3.14459111111111},{"id":32403,"department_code":"80","insee_code":"80749","zip_code":"80600","name":"Terramesnil","slug":"terramesnil","gps_lat":50.10203439393938,"gps_lng":2.38396515151515},{"id":32404,"department_code":"80","insee_code":"80750","zip_code":"80200","name":"Tertry","slug":"tertry","gps_lat":49.86032149253734,"gps_lng":3.07156552238806},{"id":32405,"department_code":"80","insee_code":"80751","zip_code":"80110","name":"Thennes","slug":"thennes","gps_lat":49.8048646226415,"gps_lng":2.47657462264151},{"id":32406,"department_code":"80","insee_code":"80752","zip_code":"80440","name":"Th\u00e9zy-Glimont","slug":"thezy glimont","gps_lat":49.81850957894738,"gps_lng":2.43069578947368},{"id":32407,"department_code":"80","insee_code":"80753","zip_code":"80300","name":"Thiepval","slug":"thiepval","gps_lat":50.05934818181817,"gps_lng":2.68503136363636},{"id":32408,"department_code":"80","insee_code":"80754","zip_code":"80640","name":"Thieulloy-l'Abbaye","slug":"thieulloy l abbaye","gps_lat":49.82131612068964,"gps_lng":1.9430631034482801},{"id":32409,"department_code":"80","insee_code":"80755","zip_code":"80290","name":"Thieulloy-la-Ville","slug":"thieulloy la ville","gps_lat":49.74465976190478,"gps_lng":1.92689333333333},{"id":32410,"department_code":"80","insee_code":"80756","zip_code":"62760","name":"Thi\u00e8vres","slug":"thievres","gps_lat":50.12007973333334,"gps_lng":2.46285426666667},{"id":32411,"department_code":"80","insee_code":"80757","zip_code":"80160","name":"Thoix","slug":"thoix","gps_lat":49.70309561643835,"gps_lng":2.06242369863014},{"id":34848,"department_code":"89","insee_code":"89319","zip_code":"89290","name":"Quenne","slug":"quenne","gps_lat":47.77788738095238,"gps_lng":3.65192630952381},{"id":34849,"department_code":"89","insee_code":"89320","zip_code":"89740","name":"Quincerot","slug":"quincerot","gps_lat":47.94215930555557,"gps_lng":4.16434472222222},{"id":34850,"department_code":"89","insee_code":"89321","zip_code":"89390","name":"Ravi\u00e8res","slug":"ravieres","gps_lat":47.74098378571427,"gps_lng":4.24778385714286},{"id":34851,"department_code":"89","insee_code":"89323","zip_code":"89700","name":"Roffey","slug":"roffey","gps_lat":47.91366615384617,"gps_lng":3.9124775384615402},{"id":34852,"department_code":"89","insee_code":"89324","zip_code":"89220","name":"Rogny-les-Sept-\u00c9cluses","slug":"rogny les sept ecluses","gps_lat":47.73642882926832,"gps_lng":2.89312429268293},{"id":34853,"department_code":"89","insee_code":"89325","zip_code":"89170","name":"Ronch\u00e8res","slug":"roncheres","gps_lat":47.65489134615386,"gps_lng":3.12002576923077},{"id":34854,"department_code":"89","insee_code":"89326","zip_code":"89100","name":"Rosoy","slug":"rosoy","gps_lat":48.14823868131869,"gps_lng":3.31352769230769},{"id":34855,"department_code":"89","insee_code":"89327","zip_code":"89500","name":"Rousson","slug":"rousson","gps_lat":48.0909817105263,"gps_lng":3.2599774999999998},{"id":34856,"department_code":"89","insee_code":"89328","zip_code":"89230","name":"Rouvray","slug":"rouvray","gps_lat":47.9027169892473,"gps_lng":3.6730980645161297},{"id":34857,"department_code":"89","insee_code":"89329","zip_code":"89430","name":"Rugny","slug":"rugny","gps_lat":47.89715489510491,"gps_lng":4.14966461538462},{"id":34858,"department_code":"89","insee_code":"89331","zip_code":"89520","name":"Sainpuits","slug":"sainpuits","gps_lat":47.51549,"gps_lng":3.25017056074766},{"id":34859,"department_code":"89","insee_code":"89332","zip_code":"89340","name":"Saint-Agnan","slug":"saint agnan","gps_lat":48.3015753164557,"gps_lng":3.05800936708861},{"id":34860,"department_code":"89","insee_code":"89333","zip_code":"89420","name":"Saint-Andr\u00e9-en-Terre-Plaine","slug":"saint andre en terre plaine","gps_lat":47.47839927835051,"gps_lng":4.06190721649484},{"id":34861,"department_code":"89","insee_code":"89334","zip_code":"89110","name":"Le Val d'Ocre","slug":"le val d ocre","gps_lat":47.82050144927535,"gps_lng":3.29289898550725},{"id":34862,"department_code":"89","insee_code":"89335","zip_code":"89300","name":"Saint-Aubin-sur-Yonne","slug":"saint aubin sur yonne","gps_lat":47.99779173913043,"gps_lng":3.3608697826087},{"id":34863,"department_code":"89","insee_code":"89336","zip_code":"89630","name":"Saint-Brancher","slug":"saint brancher","gps_lat":47.43245612244901,"gps_lng":3.99161993197279},{"id":34864,"department_code":"89","insee_code":"89337","zip_code":"89530","name":"Saint-Bris-le-Vineux","slug":"saint bris le vineux","gps_lat":47.73780610465116,"gps_lng":3.6656173255814},{"id":34865,"department_code":"89","insee_code":"89338","zip_code":"89100","name":"Saint-Cl\u00e9ment","slug":"saint clement","gps_lat":48.22549441176471,"gps_lng":3.31647794117647},{"id":34866,"department_code":"89","insee_code":"89339","zip_code":"89440","name":"Sainte-Colombe","slug":"sainte colombe","gps_lat":47.57824854166667,"gps_lng":3.9514009375},{"id":34867,"department_code":"89","insee_code":"89340","zip_code":"89520","name":"Sainte-Colombe-sur-Loing","slug":"sainte colombe sur loing","gps_lat":47.57775702127658,"gps_lng":3.22837882978724},{"id":34868,"department_code":"89","insee_code":"89341","zip_code":"89800","name":"Saint-Cyr-les-Colons","slug":"saint cyr les colons","gps_lat":47.73123538461538,"gps_lng":3.76271019230769},{"id":34869,"department_code":"89","insee_code":"89342","zip_code":"89100","name":"Saint-Denis-l\u00e8s-Sens","slug":"saint denis les sens","gps_lat":48.23579597222223,"gps_lng":3.26381958333333},